OSCAR 7 (AO-7)          
1 07530U 74089B   22320.85056927 -.00000019  00000+0  16933-3 0  9999
2 07530 101.9252 301.3033 0012405 109.1591   6.3879 12.53658626196562
PHASE 3B (AO-10)        
1 14129U 83058B   22317.35712507 -.00000283  00000+0  00000+0 0  9998
2 14129  26.6496  71.7499 6028905 122.9022 309.5147  2.05872468268475
UOSAT 2 (UO-11)         
1 14781U 84021B   22320.38515362  .00001008  00000+0  12724-3 0  9995
2 14781  97.6343 301.0462 0008343 171.2949 188.8412 14.83973725 62573
LUSAT (LO-19)           
1 20442U 90005G   22320.79581357  .00000142  00000+0  68511-4 0  9991
2 20442  98.8161 288.1400 0012844  82.2864 277.9777 14.33113396714922
EYESAT A (AO-27)        
1 22825U 93061C   22320.81825403  .00000072  00000+0  45565-4 0  9995
2 22825  98.8717 354.9667 0007895 334.2607  25.8180 14.30210335519938
ITAMSAT (IO-26)         
1 22826U 93061D   22320.80442837  .00000084  00000+0  50029-4 0  9995
2 22826  98.8662 354.8233 0008222 319.1753  40.8812 14.30560824520195
RADIO ROSTO (RS-15)     
1 23439U 94085A   22320.85518806 -.00000039  00000+0  10000-3 0  9993
2 23439  64.8145 259.1151 0167415 246.6759 111.6469 11.27573345148670
JAS-2 (FO-29)           
1 24278U 96046B   22320.75437713 -.00000010  00000+0  28536-4 0  9993
2 24278  98.5142 323.4734 0349300 248.0345 108.3335 13.53124366296201
TECHSAT 1B (GO-32)      
1 25397U 98043D   22320.78638869  .00000084  00000+0  56545-4 0  9994
2 25397  98.8383 271.7870 0002072  54.8729 305.2643 14.23788290265106
ISS (ZARYA)             
1 25544U 98067A   22321.21306713  .00009680  00000+0  17697-3 0  9998
2 25544  51.6435 298.5204 0006948  82.7779  95.2344 15.50053212368911
PCSAT (NO-44)           
1 26931U 01043C   22320.56562517  .00000109  00000+0  73241-4 0  9995
2 26931  67.0530  25.7568 0005236 265.9952  94.0551 14.30764059103165
SAUDISAT 1C (SO-50)     
1 27607U 02058C   22321.08211095  .00000626  00000+0  10554-3 0  9994
2 27607  64.5540 194.7493 0081286 265.4414  93.7401 14.76417896 71113
CUTE-1 (CO-55)          
1 27844U 03031E   22321.06209906  .00000257  00000+0  13442-3 0  9994
2 27844  98.6803 326.4639 0010265  26.1092 334.0602 14.22540700  5602
CUBESAT XI-IV (CO-57)   
1 27848U 03031J   22320.58062430  .00000228  00000+0  12283-3 0  9993
2 27848  98.6844 326.4742 0010435  41.1177 319.0785 14.22085152  5336
MOZHAYETS 4 (RS-22)     
1 27939U 03042A   22321.20176618  .00000946  00000+0  17503-3 0  9997
2 27939  98.2139 102.1062 0013932  87.0681 273.2107 14.67618968 23445
CUBESAT XI-V            
1 28895U 05043F   22320.88304532  .00000954  00000+0  18811-3 0  9995
2 28895  98.1275  90.1244 0016903  25.4315 334.7716 14.64663051909954
FALCONSAT-3             
1 30776U 07006E   22321.13754737  .00103530  00000+0  73784-3 0  9996
2 30776  35.4276 329.9532 0006242 176.7511 183.3268 15.72498050873445
CUTE-1.7+APD II (CO-65) 
1 32785U 08021C   22320.82175192  .00001846  00000+0  19554-3 0  9995
2 32785  97.6786 287.0568 0014354  88.4568 271.8295 14.90239255789178
DELFI-C3 (DO-64)        
1 32789U 08021G   22320.80563043  .00014423  00000+0  71032-3 0  9997
2 32789  97.3286 341.8822 0010530 142.8303 217.3662 15.18023091795002
SEEDS II (CO-66)        
1 32791U 08021J   22320.57510077  .00002829  00000+0  27270-3 0  9995
2 32791  97.6312 292.1607 0014042  47.8032 312.4377 14.93624011789893
YUBILEINY (RS-30)       
1 32953U 08025A   22321.13436344  .00000024  00000+0  10000-3 0  9994
2 32953  82.5008  88.9833 0018628 287.0845  72.8193 12.43115248657307
KKS-1 (KISEKI)          
1 33499U 09002H   22320.82874811  .00000875  00000+0  13394-3 0  9999
2 33499  98.1948 205.2275 0008736 179.1886 180.9338 14.76273746742727
SWISSCUBE               
1 35932U 09051B   22321.04419213  .00000682  00000+0  16226-3 0  9996
2 35932  98.5464 181.1053 0006649 305.2008  54.8566 14.57080947698352
BEESAT-1                
1 35933U 09051C   22320.17469426  .00000645  00000+0  15414-3 0  9998
2 35933  98.5399 181.7311 0005090 325.0081  35.0782 14.57069166698264
ITUPSAT1                
1 35935U 09051E   22320.56039892  .00000587  00000+0  14388-3 0  9997
2 35935  98.5499 182.1409 0007422 324.3983  35.6718 14.56163602698011
XIWANG-1 (HOPE-1)       
1 36122U 09072B   22320.80983180 -.00000014  00000+0  75702-4 0  9998
2 36122 100.2065 286.7048 0007491 356.0871   4.0183 13.16374243620857
JUGNU                   
1 37839U 11058B   22321.10344057  .00000433  00000+0  88580-4 0  9991
2 37839  19.9624 329.5497 0019061  40.6172   3.4759 14.12833669573869
SRMSAT                  
1 37841U 11058D   22320.60939912  .00000407  00000+0  78398-4 0  9995
2 37841  19.9727  55.1633 0011701 215.7276 173.1603 14.10794165572758
M-CUBED & EXP-1 PRIME   
1 37855U 11061F   22320.52839507  .00009998  00000+0  40811-3 0  9996
2 37855 101.7173 160.6829 0144545 325.7107  33.4842 15.15707909604244
STRAND-1                
1 39090U 13009E   22319.78090208  .00000250  00000+0  10187-3 0  9991
2 39090  98.3941 153.9275 0009040 173.6429 186.4873 14.35368522509105
SOMP                    
1 39134U 13015E   22320.34238829  .00021416  00000+0  64256-3 0  9997
2 39134  64.8592 281.7738 0031393 258.7427 101.0178 15.34000043530103
BEESAT-3                
1 39135U 13015F   22320.43099500  .00014474  00000+0  52807-3 0  9994
2 39135  64.8652 321.6119 0036616 261.5351  98.1630 15.27734808529729
BEESAT-2                
1 39136U 13015G   22321.04618257  .00012761  00000+0  49071-3 0  9995
2 39136  64.8740 328.7523 0024885 292.6343  67.2156 15.26416254529659
ZACUBE-1 (TSHEPISOSAT)  
1 39417U 13066B   22320.89553098  .00001933  00000+0  23805-3 0  9992
2 39417  97.6574 285.7203 0055195 264.7771  94.7144 14.83015865485715
GOMX-1                  
1 39430U 13066Q   22321.11095187  .00002227  00000+0  40219-3 0  9998
2 39430  97.7956 219.5120 0146928 283.7268  74.7609 14.60641431478574
CUBEBUG-2 (LO-74)       
1 39440U 13066AA  22320.79216294  .00002665  00000+0  36168-3 0  9990
2 39440  97.7460 272.1302 0078039 358.5313   1.5656 14.77588566482775
FUNCUBE-1 (AO-73)       
1 39444U 13066AE  22320.66072453  .00002706  00000+0  32127-3 0  9994
2 39444  97.6450 287.9292 0053890 252.3404 107.1923 14.84242572484098
UWE-3                   
1 39446U 13066AG  22320.54949749  .00002484  00000+0  32160-3 0  9994
2 39446  97.7067 278.2422 0066703 314.5470  45.0306 14.80197652482956
SPROUT                  
1 39770U 14029E   22321.24267809  .00011217  00000+0  10755-2 0  9991
2 39770  97.9557  79.4554 0007685 306.2770  53.7741 14.93274755460447
UNISAT-6                
1 40012U 14033C   22320.46774837  .00001317  00000+0  19620-3 0  9995
2 40012  97.6616 140.3790 0057632  27.7282 332.6981 14.75355361452394
DUCHIFAT-1              
1 40021U 14033M   22320.84321694  .00003515  00000+0  33435-3 0  9998
2 40021  98.0314 274.0490 0010061 257.2836 102.7258 14.94093322457447
QB50P1                  
1 40025U 14033R   22321.08521697  .00002219  00000+0  22832-3 0  9993
2 40025  97.9734 259.8238 0010242 276.7883  83.2169 14.91330543457018
NUDT-PHONESAT           
1 40900U 15049B   22321.01655375  .00050859  00000+0  10251-2 0  9991
2 40900  97.3888 340.6354 0010084  93.3768 323.8111 15.46344308398098
ZDPS 2A                 
1 40901U 15049C   22320.60513258  .00012062  00000+0  44592-3 0  9999
2 40901  97.4585 328.9872 0011350 157.1355 203.0392 15.27802428396657
ZDPS 2B                 
1 40902U 15049D   22321.07477881  .00016813  00000+0  61244-3 0  9994
2 40902  97.4679 327.3696 0011317 151.7561 280.5107 15.28212349396709
XW-2A                   
1 40903U 15049E   22321.10336611  .00040033  00000+0  45684-3 0  9995
2 40903  97.1575  20.4192 0006246 268.8410 122.8246 15.62094023403012
KAITUO 1A               
1 40904U 15049F   22321.11025891  .00009295  00000+0  43798-3 0  9991
2 40904  97.4989 322.3514 0012333 190.8102 254.4766 15.19662645396038
2015-049G               
1 40905U 15049G   22321.08103508  .00004369  00000+0  22004-3 0  9994
2 40905  97.5206 319.5404 0013805 196.5378 234.4572 15.17635406395755
XW-2C                   
1 40906U 15049H   22321.07759926  .00007270  00000+0  33140-3 0  9992
2 40906  97.4966 323.4676 0013022 177.3569 254.3884 15.20877080396100
XW-2D                   
1 40907U 15049J   22321.09015051  .00008345  00000+0  36987-3 0  9995
2 40907  97.4956 323.6140 0012505 171.8663 259.3232 15.21801217396165
LILACSAT-2              
1 40908U 15049K   22321.06955160  .00004035  00000+0  20835-3 0  9994
2 40908  97.5227 320.2839 0013992 201.0024 230.2544 15.16805476395612
XW-2E                   
1 40909U 15049L   22321.10239102  .00013606  00000+0  51802-3 0  9993
2 40909  97.4644 328.5624 0012377 147.2652 284.1856 15.26787172396676
XW-2F                   
1 40910U 15049M   22321.08396072  .00013430  00000+0  51975-3 0  9998
2 40910  97.4732 327.7171 0013141 148.8620 282.8285 15.26237480396433
XW-2B                   
1 40911U 15049N   22321.06194973  .00008400  00000+0  37376-3 0  9993
2 40911  97.4937 324.1324 0012364 172.9596 259.7078 15.21666022396041
KAITUO 1B               
1 40912U 15049P   22321.08630615  .00015184  00000+0  52649-3 0  9991
2 40912  97.4340 332.0742 0014001 116.3007 316.0802 15.29814165397056
TIANWANG 1A (TW-1A)     
1 40928U 15051D   22321.10676037  .00178411  00000+0  81255-3 0  9990
2 40928  97.0178 344.0280 0006443 140.5207 293.3910 15.83322963402155
LAPAN-A2                
1 40931U 15052B   22320.93741990  .00001159  00000+0  71743-4 0  9992
2 40931   5.9960 161.2618 0012248 169.7994 190.2602 14.76921921385924
E-ST@R-II               
1 41459U 16025D   22321.17515061  .00016220  00000+0  63498-3 0  9996
2 41459  98.1934 138.1691 0135306 109.6918 251.8761 15.17728138360620
AAUSAT 4                
1 41460U 16025E   22321.23986566  .00025249  00000+0  81168-3 0  9992
2 41460  98.1800 146.0639 0109643  79.8922 281.4597 15.26512822361181
